NORAD_CAT_ID,OBJECT_NAME,OBJECT_TYPE,EPOCH,MEAN_MOTION,ECCENTRICITY,INCLINATION,RA_OF_ASC_NODE,ARG_OF_PERICENTER,MEAN_ANOMALY,BSTAR,MEAN_MOTION_DOT,MEAN_MOTION_DDOT,TLE_LINE0,TLE_LINE1,TLE_LINE2,SEMIMAJOR_AXIS,PERIOD,APOGEE,PERIGEE,DECAYED
52088.0,STARLINK-3537,PAYLOAD,2023-04-09 03:03:07,15.08846349,0.0001406,53.2182,82.3481,106.9035,253.2112,3.4977e-05,2.69e-06,0.0,0 STARLINK-3537,1 52088U 22029A   23099.12716826  .00000269  00000-0  34977-4 0  9995,2 52088  53.2182  82.3481 0001406 106.9035 253.2112 15.08846349 61334,6917.861,95.437,540.699,538.753,0.0
52088.0,STARLINK-3537,PAYLOAD,2023-04-09 07:49:16,15.08849062,0.0001382,53.2181,81.4559,100.9068,259.208,0.00011132,1.485e-05,0.0,0 STARLINK-3537,1 52088U 22029A   23099.32588691  .00001485  00000-0  11132-3 0  9992,2 52088  53.2181  81.4559 0001382 100.9068 259.2080 15.08849062 61360,6917.853,95.437,540.674,538.762,0.0
52088.0,STARLINK-3537,PAYLOAD,2023-04-09 15:46:11,15.08854671,0.0001391,53.2184,79.969,98.8183,261.2966,0.0001724,2.458e-05,0.0,0 STARLINK-3537,1 52088U 22029A   23099.65708204  .00002458  00000-0  17240-3 0  9999,2 52088  53.2184  79.9690 0001391  98.8183 261.2966 15.08854671 61418,6917.836,95.437,540.663,538.738,0.0
52088.0,STARLINK-3537,PAYLOAD,2023-04-10 04:29:16,15.08865209,0.000129,53.2188,77.5905,106.1978,253.9156,0.00034086,5.145e-05,0.0,0 STARLINK-3537,1 52088U 22029A   23100.18699185  .00005145  00000-0  34086-3 0  9990,2 52088  53.2188  77.5905 0001290 106.1978 253.9156 15.08865209 61494,6917.803,95.436,540.561,538.776,0.0
52088.0,STARLINK-3537,PAYLOAD,2023-04-10 07:40:01,15.08870787,0.0001409,53.2181,76.9954,101.937,258.178,0.00027428,4.084e-05,0.0,0 STARLINK-3537,1 52088U 22029A   23100.31946687  .00004084  00000-0  27428-3 0  9990,2 52088  53.2181  76.9954 0001409 101.9370 258.1780 15.08870787 61515,6917.786,95.436,540.626,538.677,0.0
52088.0,STARLINK-3537,PAYLOAD,2023-04-10 15:36:56,15.0888152,0.0001368,53.2183,75.5089,98.0442,262.0705,0.00051713,7.961e-05,0.0,0 STARLINK-3537,1 52088U 22029A   23100.65065754  .00007961  00000-0  51713-3 0  9995,2 52088  53.2183  75.5089 0001368  98.0442 262.0705 15.08881520 61564,6917.753,95.435,540.565,538.672,0.0
52088.0,STARLINK-3537,PAYLOAD,2023-04-11 04:19:59,15.08903119,0.0001237,53.2175,73.1296,99.1593,260.9539,0.00074488,0.00011607,0.0,0 STARLINK-3537,1 52088U 22029A   23101.18055407  .00011607  00000-0  74488-3 0  9994,2 52088  53.2175  73.1296 0001237  99.1593 260.9539 15.08903119 61643,6917.687,95.434,540.408,538.697,0.0
52088.0,STARLINK-3537,PAYLOAD,2023-04-11 07:30:45,15.08912331,0.0001256,53.2174,72.5347,99.8726,260.2408,0.00090785,0.00014218,0.0,0 STARLINK-3537,1 52088U 22029A   23101.31302766  .00014218  00000-0  90785-3 0  9991,2 52088  53.2174  72.5347 0001256  99.8726 260.2408 15.08912331 61664,6917.659,95.433,540.393,538.655,0.0
52088.0,STARLINK-3537,PAYLOAD,2023-04-12 07:21:26,15.08968375,0.0001271,53.2177,68.0746,100.3971,259.7164,0.0012608,0.00019905,0.0,0 STARLINK-3537,1 52088U 22029A   23102.30655495  .00019905  00000-0  12608-2 0  9996,2 52088  53.2177  68.0746 0001271 100.3971 259.7164 15.08968375 61815,6917.488,95.429,540.232,538.474,0.0
52088.0,STARLINK-3537,PAYLOAD,2023-04-13 07:12:04,15.09020367,0.000125,53.2182,63.6138,101.8378,258.2755,0.0015194,0.00024096,0.0,0 STARLINK-3537,1 52088U 22029A   23103.30005121  .00024096  00000-0  15194-2 0  9992,2 52088  53.2182  63.6138 0001250 101.8378 258.2755 15.09020367 61968,6917.329,95.426,540.059,538.329,0.0
52088.0,STARLINK-3537,PAYLOAD,2023-04-14 07:02:39,15.0907851,0.0001233,53.2183,59.1527,107.0614,253.0514,0.0017949,0.00028581,0.0,0 STARLINK-3537,1 52088U 22029A   23104.29351212  .00028581  00000-0  17949-2 0  9999,2 52088  53.2183  59.1527 0001233 107.0614 253.0514 15.09078510 62110,6917.151,95.422,539.869,538.164,0.0
52088.0,STARLINK-3537,PAYLOAD,2023-04-15 05:17:48,15.09138617,0.000124,53.2187,54.9887,112.4603,247.6521,0.0019774,0.00031582,0.0,0 STARLINK-3537,1 52088U 22029A   23105.22070593  .00031582  00000-0  19774-2 0  9996,2 52088  53.2187  54.9887 0001240 112.4603 247.6521 15.09138617 62259,6916.968,95.419,539.69,537.975,0.0
52088.0,STARLINK-3537,PAYLOAD,2023-04-16 06:43:38,15.09214919,0.0001214,53.2185,50.2288,119.9322,240.1791,0.0020684,0.00033126,0.0,0 STARLINK-3537,1 52088U 22029A   23106.28030670  .00033126  00000-0  20684-2 0  9993,2 52088  53.2185  50.2288 0001214 119.9322 240.1791 15.09214919 62417,6916.735,95.414,539.439,537.76,0.0
52088.0,STARLINK-3537,PAYLOAD,2023-04-17 04:58:40,15.09284976,0.0001187,53.2184,46.0642,124.4241,235.6863,0.0022315,0.00035844,0.0,0 STARLINK-3537,1 52088U 22029A   23107.20741230  .00035844  00000-0  22315-2 0  9999,2 52088  53.2184  46.0642 0001187 124.4241 235.6863 15.09284976 62557,6916.521,95.409,539.207,537.565,0.0
52088.0,STARLINK-3537,PAYLOAD,2023-04-18 04:48:59,15.09357106,0.0001184,53.2185,41.602,129.7414,230.3682,0.0022018,0.00035431,0.0,0 STARLINK-3537,1 52088U 22029A   23108.20069372  .00035431  00000-0  22018-2 0  9992,2 52088  53.2185  41.6020 0001184 129.7414 230.3682 15.09357106 62700,6916.3,95.405,538.984,537.346,0.0
52088.0,STARLINK-3537,PAYLOAD,2023-04-19 04:39:15,15.09434575,0.0001173,53.2187,37.1396,133.9881,226.1208,0.0025551,0.00041285,0.0,0 STARLINK-3537,1 52088U 22029A   23109.19392705  .00041285  00000-0  25551-2 0  9999,2 52088  53.2187  37.1396 0001173 133.9881 226.1208 15.09434575 62850,6916.064,95.4,538.74,537.117,0.0
52088.0,STARLINK-3537,PAYLOAD,2023-04-20 04:29:26,15.09506927,0.0001145,53.2192,32.6771,137.3534,222.7547,0.0021401,0.00034568,0.0,0 STARLINK-3537,1 52088U 22029A   23110.18711013  .00034568  00000-0  21401-2 0  9993,2 52088  53.2192  32.6771 0001145 137.3534 222.7547 15.09506927 63002,6915.843,95.395,538.499,536.916,0.0
52088.0,STARLINK-3537,PAYLOAD,2023-04-21 04:19:33,15.09572894,0.0001107,53.2194,28.2146,139.4659,220.6416,0.0019733,0.00031898,0.0,0 STARLINK-3537,1 52088U 22029A   23111.18024717  .00031898  00000-0  19733-2 0  9990,2 52088  53.2194  28.2146 0001107 139.4659 220.6416 15.09572894 63154,6915.641,95.391,538.272,536.741,0.0
52088.0,STARLINK-3537,PAYLOAD,2023-04-21 18:37:35,15.09608906,0.0001073,53.2196,25.5368,141.4979,218.6091,0.0018291,0.00029565,0.0,0 STARLINK-3537,1 52088U 22029A   23111.77610971  .00029565  00000-0  18291-2 0  9994,2 52088  53.2196  25.5368 0001073 141.4979 218.6091 15.09608906 63242,6915.531,95.389,538.138,536.654,0.0
52088.0,STARLINK-3537,PAYLOAD,2023-04-22 00:58:56,15.09628478,0.0001008,53.2194,24.347,141.8144,218.292,0.0020676,0.00033495,0.0,0 STARLINK-3537,1 52088U 22029A   23112.04093251  .00033495  00000-0  20676-2 0  9998,2 52088  53.2194  24.3470 0001008 141.8144 218.2920 15.09628478 63284,6915.471,95.388,538.033,536.639,0.0
52088.0,STARLINK-3537,PAYLOAD,2023-04-23 00:48:56,15.09689004,9.86e-05,53.2195,19.8837,148.7791,211.326,0.0016571,0.00026807,0.0,0 STARLINK-3537,1 52088U 22029A   23113.03398997  .00026807  00000-0  16571-2 0  9991,2 52088  53.2195  19.8837 0000986 148.7791 211.3260 15.09689004 63439,6915.287,95.384,537.833,536.47,0.0
52088.0,STARLINK-3537,PAYLOAD,2023-04-23 18:17:34,15.09735999,0.0001001,53.2192,16.6107,154.1167,205.9875,0.0018504,0.0003002,0.0,0 STARLINK-3537,1 52088U 22029A   23113.76220712  .00030020  00000-0  18504-2 0  9990,2 52088  53.2192  16.6107 0001001 154.1167 205.9875 15.09735999 63546,6915.143,95.381,537.7,536.316,0.0
52088.0,STARLINK-3537,PAYLOAD,2023-04-24 02:14:12,15.09772589,0.0001014,53.2192,15.123,156.5726,203.5313,0.0027056,0.00044161,0.0,0 STARLINK-3537,1 52088U 22029A   23114.09320489  .00044161  00000-0  27056-2 0  9992,2 52088  53.2192  15.1230 0001014 156.5726 203.5313 15.09772589 63590,6915.031,95.379,537.597,536.195,0.0
52088.0,STARLINK-3537,PAYLOAD,2023-04-25 02:04:03,15.09877054,0.0001061,53.2188,10.6591,159.0429,201.0608,0.00204,0.00033271,0.0,0 STARLINK-3537,1 52088U 22029A   23115.08614588  .00033271  00000-0  20400-2 0  9994,2 52088  53.2188  10.6591 0001061 159.0429 201.0608 15.09877054 63745,6914.712,95.372,537.311,535.844,0.0
52088.0,STARLINK-3537,PAYLOAD,2023-04-26 00:18:36,15.0976538,0.0001019,53.2186,6.492,138.8739,221.2331,0.00013833,1.968e-05,0.0,0 STARLINK-3537,1 52088U 22029A   23116.01291677  .00001968  00000-0  13833-3 0  9999,2 52088  53.2186   6.4920 0001019 138.8739 221.2331 15.09765380 63884,6915.053,95.379,537.623,536.214,0.0
52088.0,STARLINK-3537,PAYLOAD,2023-04-26 22:33:09,15.09826594,8.46e-05,53.2182,2.3283,136.9089,223.197,0.0020929,0.00034097,0.0,0 STARLINK-3537,1 52088U 22029A   23116.93969179  .00034097  00000-0  20929-2 0  9991,2 52088  53.2182   2.3283 0000846 136.9089 223.1970 15.09826594 64023,6914.866,95.375,537.316,536.146,0.0
52088.0,STARLINK-3537,PAYLOAD,2023-04-27 20:48:00,15.09487041,0.0002042,53.2189,358.164,335.7934,24.2962,0.0017585,0.00028313,0.0,0 STARLINK-3537,1 52088U 22029A   23117.86666955  .00028313  00000-0  17585-2 0  9998,2 52088  53.2189 358.1640 0002042 335.7934  24.2962 15.09487041 64163,6915.903,95.397,539.181,536.356,0.0
52088.0,STARLINK-3537,PAYLOAD,2023-04-28 03:09:26,15.09012321,0.0001032,53.218,356.9705,120.3534,239.756,-0.010543,-0.00165032,0.0,0 STARLINK-3537,1 52088U 22029A   23118.13155423 -.00165032  00000-0 -10543-1 0  9990,2 52088  53.2180 356.9705 0001032 120.3534 239.7560 15.09012321 64201,6917.354,95.427,539.933,538.505,0.0
52088.0,STARLINK-3537,PAYLOAD,2023-04-28 09:31:01,15.08852799,0.0001307,53.2189,355.7836,78.3651,281.7488,0.00093031,0.00014554,0.0,0 STARLINK-3537,1 52088U 22029A   23118.39654243  .00014554  00000-0  93031-3 0  9997,2 52088  53.2189 355.7836 0001307  78.3651 281.7488 15.08852799 64249,6917.841,95.437,540.61,538.802,0.0
52088.0,STARLINK-3537,PAYLOAD,2023-04-28 22:00:00,15.08442748,0.0001172,53.219,353.4484,92.947,213.5785,-0.020601,-0.00310849,0.0,0 STARLINK-3537,1 52088U 22029A   23118.91667824 -.00310849  00000-0 -20601-1 0  9993,2 52088  53.2190 353.4484 0001172  92.9470 213.5785 15.08442748 64316,6919.095,95.463,541.771,540.149,0.0
